start=new Date('2022-11-19T00:00:00.000Z').valueOf();
sats=[{"TIME_SYSTEM":"UTC","INCLINATION":"53.0541","TLE_LINE2":"2 47825  53.0541 269.4563 0001568  52.9119 307.2013 15.06389778 94696","ARG_OF_PERICENTER":"52.9119","OBJECT_ID":"2021-018AQ","PERIAPSIS":"546.159","MEAN_ANOMALY":"307.2013","REF_FRAME":"TEME","FILE":"3662753","PERIOD":"95.593","ELEMENT_SET_NO":"999","CLASSIFICATION_TYPE":"U","APOAPSIS":"548.331","SITE":"AFETR","RCS_SIZE":"LARGE","BSTAR":"0.00000860820000","MEAN_MOTION_DOT":"-0.00000153","EPHEMERIS_TYPE":"0","ECCENTRICITY":"0.00015680","SEMIMAJOR_AXIS":"6925.380","NORAD_CAT_ID":"47825","OBJECT_NAME":"STARLINK-2410","CENTER_NAME":"EARTH","REV_AT_EPOCH":"9469","RA_OF_ASC_NODE":"269.4563","MEAN_ELEMENT_THEORY":"SGP4","TLE_LINE1":"1 47825U 21018AQ  22322.82476442 -.00000153  00000-0  86082-5 0  9995","COUNTRY_CODE":"US","LAUNCH_DATE":"2021-03-11","MEAN_MOTION_DDOT":"0.0000000000000","MEAN_MOTION":"15.06389778","DECAY_DATE":null,"OBJECT_TYPE":"PAYLOAD","GP_ID":"218165719","EPOCH":"2022-11-18T19:47:39.645888"},{"RA_OF_ASC_NODE":"270.6635","REV_AT_EPOCH":"9465","CENTER_NAME":"EARTH","SEMIMAJOR_AXIS":"6925.348","NORAD_CAT_ID":"47826","ECCENTRICITY":"0.00021230","OBJECT_NAME":"STARLINK-2411","LAUNCH_DATE":"2021-03-11","TLE_LINE1":"1 47826U 21018AR  22322.55567300  .00000661  00000-0  63294-4 0  9992","COUNTRY_CODE":"US","MEAN_ELEMENT_THEORY":"SGP4","MEAN_MOTION_DDOT":"0.0000000000000","GP_ID":"218166459","OBJECT_TYPE":"PAYLOAD","EPOCH":"2022-11-18T13:20:10.147200","DECAY_DATE":null,"MEAN_MOTION":"15.06400129","ARG_OF_PERICENTER":"38.7050","TLE_LINE2":"2 47826  53.0558 270.6635 0002123  38.7050 321.4091 15.06400129 94657","TIME_SYSTEM":"UTC","INCLINATION":"53.0558","REF_FRAME":"TEME","PERIAPSIS":"545.743","MEAN_ANOMALY":"321.4091","OBJECT_ID":"2021-018AR","SITE":"AFETR","APOAPSIS":"548.683","PERIOD":"95.592","ELEMENT_SET_NO":"999","CLASSIFICATION_TYPE":"U","FILE":"3662753","EPHEMERIS_TYPE":"0","MEAN_MOTION_DOT":"0.00000661","BSTAR":"0.00006329400000","RCS_SIZE":"LARGE"},{"ARG_OF_PERICENTER":"54.2748","TIME_SYSTEM":"UTC","INCLINATION":"53.0552","TLE_LINE2":"2 47827  53.0552 262.1547 0001505  54.2748 305.8381 15.06393885 94805","PERIAPSIS":"546.190","MEAN_ANOMALY":"305.8381","REF_FRAME":"TEME","OBJECT_ID":"2021-018AS","APOAPSIS":"548.275","SITE":"AFETR","FILE":"3662515","PERIOD":"95.593","ELEMENT_SET_NO":"999","CLASSIFICATION_TYPE":"U","EPHEMERIS_TYPE":"0","MEAN_MOTION_DOT":"0.00001118","RCS_SIZE":"LARGE","BSTAR":"0.00009396200000","CENTER_NAME":"EARTH","RA_OF_ASC_NODE":"262.1547","REV_AT_EPOCH":"9480","ECCENTRICITY":"0.00015050","SEMIMAJOR_AXIS":"6925.367","NORAD_CAT_ID":"47827","OBJECT_NAME":"STARLINK-2413","LAUNCH_DATE":"2021-03-11","MEAN_ELEMENT_THEORY":"SGP4","TLE_LINE1":"1 47827U 21018AS  22322.27282011  .00001118  00000-0  93962-4 0  9998","COUNTRY_CODE":"US","MEAN_MOTION_DDOT":"0.0000000000000","GP_ID":"218134777","OBJECT_TYPE":"PAYLOAD","EPOCH":"2022-11-18T06:32:51.657504","MEAN_MOTION":"15.06393885","DECAY_DATE":null},{"LAUNCH_DATE":"2021-03-11","COUNTRY_CODE":"US","TLE_LINE1":"1 47828U 21018AT  22322.60636520 -.00000116  00000-0  11156-4 0  9997","MEAN_ELEMENT_THEORY":"SGP4","RA_OF_ASC_NODE":"280.4341","REV_AT_EPOCH":"9452","CENTER_NAME":"EARTH","SEMIMAJOR_AXIS":"6925.349","NORAD_CAT_ID":"47828","ECCENTRICITY":"0.00021450","OBJECT_NAME":"STARLINK-2415","EPOCH":"2022-11-18T14:33:09.953280","GP_ID":"218165468","OBJECT_TYPE":"PAYLOAD","DECAY_DATE":null,"MEAN_MOTION":"15.06399825","MEAN_MOTION_DDOT":"0.0000000000000","REF_FRAME":"TEME","MEAN_ANOMALY":"315.2320","PERIAPSIS":"545.729","OBJECT_ID":"2021-018AT","ARG_OF_PERICENTER":"44.8842","TLE_LINE2":"2 47828  53.0556 280.4341 0002145  44.8842 315.2320 15.06399825 94523","INCLINATION":"53.0556","TIME_SYSTEM":"UTC","MEAN_MOTION_DOT":"-0.00000116","EPHEMERIS_TYPE":"0","BSTAR":"0.00001115600000","RCS_SIZE":"LARGE","SITE":"AFETR","APOAPSIS":"548.700","CLASSIFICATION_TYPE":"U","ELEMENT_SET_NO":"999","PERIOD":"95.592","FILE":"3662753"},{"SEMIMAJOR_AXIS":"6925.369","OBJECT_NAME":"STARLINK-2416","NORAD_CAT_ID":"47829","ECCENTRICITY":"0.00020020","CENTER_NAME":"EARTH","REV_AT_EPOCH":"9455","RA_OF_ASC_NODE":"279.1560","MEAN_ELEMENT_THEORY":"SGP4","COUNTRY_CODE":"US","TLE_LINE1":"1 47829U 21018AU  22322.89018430  .00001059  00000-0  90039-4 0  9996","LAUNCH_DATE":"2021-03-11","MEAN_MOTION_DDOT":"0.0000000000000","MEAN_MOTION":"15.06393468","DECAY_DATE":null,"EPOCH":"2022-11-18T21:21:51.923520","OBJECT_TYPE":"PAYLOAD","GP_ID":"218166220","INCLINATION":"53.0542","TIME_SYSTEM":"UTC","TLE_LINE2":"2 47829  53.0542 279.1560 0002002  58.6993 301.4192 15.06393468 94553","ARG_OF_PERICENTER":"58.6993","OBJECT_ID":"2021-018AU","MEAN_ANOMALY":"301.4192","PERIAPSIS":"545.847","REF_FRAME":"TEME","FILE":"3662753","ELEMENT_SET_NO":"999","CLASSIFICATION_TYPE":"U","PERIOD":"95.593","APOAPSIS":"548.620","SITE":"AFETR","RCS_SIZE":"MEDIUM","BSTAR":"0.00009003900000","EPHEMERIS_TYPE":"0","MEAN_MOTION_DOT":"0.00001059"},{"PERIAPSIS":"545.770","MEAN_ANOMALY":"309.8621","REF_FRAME":"TEME","OBJECT_ID":"2021-018AV","ARG_OF_PERICENTER":"50.2552","TIME_SYSTEM":"UTC","INCLINATION":"53.0542","TLE_LINE2":"2 47830  53.0542 279.1771 0002100  50.2552 309.8621 15.06396399 94552","EPHEMERIS_TYPE":"0","MEAN_MOTION_DOT":"-0.00001701","RCS_SIZE":"LARGE","BSTAR":"-0.00009532600000","APOAPSIS":"548.679","SITE":"AFETR","FILE":"3662753","PERIOD":"95.592","CLASSIFICATION_TYPE":"U","ELEMENT_SET_NO":"999","LAUNCH_DATE":"2021-03-11","MEAN_ELEMENT_THEORY":"SGP4","TLE_LINE1":"1 47830U 21018AV  22322.88649274 -.00001701  00000-0 -95326-4 0  9993","COUNTRY_CODE":"US","CENTER_NAME":"EARTH","REV_AT_EPOCH":"9455","RA_OF_ASC_NODE":"279.1771","SEMIMAJOR_AXIS":"6925.360","NORAD_CAT_ID":"47830","ECCENTRICITY":"0.00021000","OBJECT_NAME":"STARLINK-2419","GP_ID":"218165959","OBJECT_TYPE":"PAYLOAD","EPOCH":"2022-11-18T21:16:32.972736","MEAN_MOTION":"15.06396399","DECAY_DATE":null,"MEAN_MOTION_DDOT":"0.0000000000000"},{"MEAN_MOTION_DDOT":"0.0000000000000","MEAN_MOTION":"15.06398948","DECAY_DATE":null,"EPOCH":"2022-11-18T05:21:49.228416","GP_ID":"218134277","OBJECT_TYPE":"PAYLOAD","NORAD_CAT_ID":"47831","SEMIMAJOR_AXIS":"6925.352","OBJECT_NAME":"STARLINK-2420","ECCENTRICITY":"0.00019290","CENTER_NAME":"EARTH","RA_OF_ASC_NODE":"257.1461","REV_AT_EPOCH":"9486","MEAN_ELEMENT_THEORY":"SGP4","COUNTRY_CODE":"US","TLE_LINE1":"1 47831U 21018AW  22322.22348644  .00001875  00000-0  14473-3 0  9992","LAUNCH_DATE":"2021-03-11","FILE":"3662515","ELEMENT_SET_NO":"999","CLASSIFICATION_TYPE":"U","PERIOD":"95.592","APOAPSIS":"548.553","SITE":"AFETR","RCS_SIZE":"LARGE","BSTAR":"0.00014473000000","MEAN_MOTION_DOT":"0.00001875","EPHEMERIS_TYPE":"0","INCLINATION":"53.0542","TIME_SYSTEM":"UTC","TLE_LINE2":"2 47831  53.0542 257.1461 0001929  50.6682 309.4478 15.06398948 94863","ARG_OF_PERICENTER":"50.6682","OBJECT_ID":"2021-018AW","MEAN_ANOMALY":"309.4478","PERIAPSIS":"545.881","REF_FRAME":"TEME"},{"SEMIMAJOR_AXIS":"6925.346","OBJECT_NAME":"STARLINK-2422","NORAD_CAT_ID":"47832","ECCENTRICITY":"0.00023580","CENTER_NAME":"EARTH","RA_OF_ASC_NODE":"272.0508","REV_AT_EPOCH":"9460","MEAN_ELEMENT_THEORY":"SGP4","COUNTRY_CODE":"US","TLE_LINE1":"1 47832U 21018AX  22322.24606334  .00000186  00000-0  31414-4 0  9997","LAUNCH_DATE":"2021-03-11","MEAN_MOTION_DDOT":"0.0000000000000","MEAN_MOTION":"15.06400767","DECAY_DATE":null,"EPOCH":"2022-11-18T05:54:19.872576","GP_ID":"218134527","OBJECT_TYPE":"PAYLOAD","INCLINATION":"53.0556","TIME_SYSTEM":"UTC","TLE_LINE2":"2 47832  53.0556 272.0508 0002358  46.7415 313.3770 15.06400767 94608","ARG_OF_PERICENTER":"46.7415","OBJECT_ID":"2021-018AX","MEAN_ANOMALY":"313.3770","PERIAPSIS":"545.578","REF_FRAME":"TEME","FILE":"3662515","ELEMENT_SET_NO":"999","CLASSIFICATION_TYPE":"U","PERIOD":"95.592","APOAPSIS":"548.844","SITE":"AFETR","RCS_SIZE":"LARGE","BSTAR":"0.00003141400000","EPHEMERIS_TYPE":"0","MEAN_MOTION_DOT":"0.00000186"},{"MEAN_MOTION_DDOT":"0.0000000000000","OBJECT_TYPE":"PAYLOAD","GP_ID":"218135279","EPOCH":"2022-11-18T06:31:29.288928","MEAN_MOTION":"15.06395341","DECAY_DATE":null,"CENTER_NAME":"EARTH","REV_AT_EPOCH":"9466","RA_OF_ASC_NODE":"271.9249","ECCENTRICITY":"0.00021940","SEMIMAJOR_AXIS":"6925.363","NORAD_CAT_ID":"47833","OBJECT_NAME":"STARLINK-2423","LAUNCH_DATE":"2021-03-11","MEAN_ELEMENT_THEORY":"SGP4","TLE_LINE1":"1 47833U 21018AY  22322.27186677 -.00000131  00000-0  10145-4 0  9993","COUNTRY_CODE":"US","APOAPSIS":"548.747","SITE":"AFETR","FILE":"3662515","PERIOD":"95.592","ELEMENT_SET_NO":"999","CLASSIFICATION_TYPE":"U","EPHEMERIS_TYPE":"0","MEAN_MOTION_DOT":"-0.00000131","BSTAR":"0.00001014500000","RCS_SIZE":"LARGE","ARG_OF_PERICENTER":"40.9005","TIME_SYSTEM":"UTC","INCLINATION":"53.0546","TLE_LINE2":"2 47833  53.0546 271.9249 0002194  40.9005 319.2148 15.06395341 94668","PERIAPSIS":"545.708","MEAN_ANOMALY":"319.2148","REF_FRAME":"TEME","OBJECT_ID":"2021-018AY"},{"PERIAPSIS":"545.944","MEAN_ANOMALY":"316.3896","REF_FRAME":"TEME","OBJECT_ID":"2021-018AZ","ARG_OF_PERICENTER":"43.7238","TIME_SYSTEM":"UTC","INCLINATION":"53.0557","TLE_LINE2":"2 47834  53.0557 269.2026 0001839  43.7238 316.3896 15.06398741 94753","EPHEMERIS_TYPE":"0","MEAN_MOTION_DOT":"0.00001357","BSTAR":"0.00011000000000","RCS_SIZE":"LARGE","APOAPSIS":"548.491","SITE":"AFETR","FILE":"3662753","PERIOD":"95.592","ELEMENT_SET_NO":"999","CLASSIFICATION_TYPE":"U","LAUNCH_DATE":"2021-03-11","MEAN_ELEMENT_THEORY":"SGP4","TLE_LINE1":"1 47834U 21018AZ  22322.88004541  .00001357  00000-0  11000-3 0  9990","COUNTRY_CODE":"US","CENTER_NAME":"EARTH","REV_AT_EPOCH":"9475","RA_OF_ASC_NODE":"269.2026","NORAD_CAT_ID":"47834","SEMIMAJOR_AXIS":"6925.352","ECCENTRICITY":"0.00018390","OBJECT_NAME":"STARLINK-2424","GP_ID":"218166460","OBJECT_TYPE":"PAYLOAD","EPOCH":"2022-11-18T21:07:15.923424","MEAN_MOTION":"15.06398741","DECAY_DATE":null,"MEAN_MOTION_DDOT":"0.0000000000000"}];
